2022-058A               
1 52785U 22058A   22182.85821016  .00001162  00000+0  15629-3 0  9995
2 52785  49.9966 122.5336 0012287  38.7496 321.4303 14.86439268  4428
2022-058B               
1 52786U 22058B   22182.85599786  .00000868  00000+0  12306-3 0  9993
2 52786  50.0018 122.5340 0012224  41.5417 318.6453 14.86537008  4404
2022-058C               
1 52787U 22058C   22183.19042245  .00001135  00000+0  15258-3 0  9992
2 52787  49.9917 120.9320 0012757  43.3851 316.8060 14.86634206  4450
2022-058D               
1 52788U 22058D   22183.18743615  .00001135  00000+0  15201-3 0  9999
2 52788  50.0067 120.9541 0013011  45.8927 314.3046 14.86783469  4453
2022-058E               
1 52789U 22058E   22183.18498783  .00000765  00000+0  11073-3 0  9994
2 52789  49.9900 120.8933 0014112  46.3037 313.9082 14.86887256  4456
2022-058F               
1 52790U 22058F   22182.84362270  .00001196  00000+0  15737-3 0  9999
2 52790  50.0078 122.4720 0014306  49.8544 310.3618 14.87164888  4406
2022-058G               
1 52791U 22058G   22182.84067200  .00001232  00000+0  16077-3 0  9994
2 52791  49.9912 122.4090 0015249  50.6314 309.5951 14.87319499  4403
2022-058H               
1 52792U 22058H   22183.17248260  .00000853  00000+0  11886-3 0  9990
2 52792  49.9960 120.8310 0016271  53.5189 306.7236 14.87512752  4459
2022-058J               
1 52793U 22058J   22183.16995804  .00001163  00000+0  15211-3 0  9994
2 52793  50.0012 120.8297 0016393  55.4450 304.7998 14.87643310  4483
CZ-2C R/B               
1 52794U 22058K   22182.90820488  .00001311  00000+0  86459-4 0  9999
2 52794  50.1767 117.7531 0104033 157.5143 203.0415 15.10847997  4478
PROGRESS-MS 20          
1 52795U 22059A   22182.53348380  .00005529  00000+0  10557-3 0  9996
2 52795  51.6436 265.5360 0004330 318.8732 237.2752 15.49782784347405
SHENZHOU 14             
1 52797U 22060A   22182.11405093  .00009424  00000+0  11442-3 0  9991
2 52797  41.4707 134.2179 0002645 354.0599 177.9517 15.60635776 66942
NILESAT 301             
1 52817U 22061A   22182.56658750 -.00000074  00000+0  00000+0 0  9991
2 52817   0.0225 334.7388 0000743 247.2710 251.3342  1.00273487   234
FALCON 9 R/B            
1 52818U 22061B   22182.27871467  .00001516  00000+0  21341-2 0  9997
2 52818  18.7615  38.9651 7691396 190.5693 130.1041  1.75880275   395
STARLINK-4091           
1 52830U 22062A   22182.91667824 -.00759456  00000+0 -53714-2 0  9997
2 52830  53.2172 333.6733 0001115  60.6272  12.3256 15.75407616  2776
STARLINK-4089           
1 52831U 22062B   22182.91667824 -.00759516  00000+0 -53796-2 0  9995
2 52831  53.2171 333.6776 0001093  63.5151   7.8065 15.75375143  2772
STARLINK-4083           
1 52832U 22062C   22182.91667824 -.00759510  00000+0 -53773-2 0  9995
2 52832  53.2171 333.6758 0001052  70.1324   1.7380 15.75384964  2767
STARLINK-4086           
1 52833U 22062D   22182.91667824 -.00759529  00000+0 -53745-2 0  9995
2 52833  53.2171 333.6753 0001138  62.8796   9.5302 15.75396741  2282
STARLINK-4108           
1 52834U 22062E   22182.91667824 -.00759461  00000+0 -53689-2 0  9998
2 52834  53.2171 333.6725 0001075  65.4608   8.0340 15.75418663  2287
STARLINK-4080           
1 52835U 22062F   22182.91667824 -.00759477  00000+0 -53664-2 0  9999
2 52835  53.2171 333.6722 0001087  64.7774   9.2596 15.75429674  2284
STARLINK-4043           
1 52836U 22062G   22182.91667824 -.00759523  00000+0 -53643-2 0  9999
2 52836  53.2172 333.6703 0001093  62.5424  12.0399 15.75440007  2286
STARLINK-4036           
1 52837U 22062H   22182.91667824 -.00759507  00000+0 -53564-2 0  9994
2 52837  53.2172 333.6677 0001086  64.1450  12.0615 15.75472972  2283
STARLINK-4092           
1 52838U 22062J   22182.91667824 -.00759502  00000+0 -53614-2 0  9996
2 52838  53.2172 333.6694 0001111  61.3351  13.7866 15.75451434  2760
STARLINK-4048           
1 52839U 22062K   22182.91667824 -.00759420  00000+0 -53505-2 0  9995
2 52839  53.2172 333.6654 0001094  63.3525  13.9345 15.75495061  2760
STARLINK-4049           
1 52840U 22062L   22182.91667824 -.00759403  00000+0 -53529-2 0  9994
2 52840  53.2172 333.6662 0001107  62.6499  14.0957 15.75484226  2760
STARLINK-4065           
1 52841U 22062M   22182.91667824 -.00772626  00000+0 -54402-2 0  9998
2 52841  53.2172 333.6623 0002135 253.5745 185.3296 15.75535793  2769
STARLINK-4046           
1 52842U 22062N   22182.91667824 -.00759462  00000+0 -53587-2 0  9995
2 52842  53.2172 333.6683 0001068  67.6910   7.9746 15.75461887  2769
STARLINK-4188           
1 52843U 22062P   22182.91667824 -.00772887  00000+0 -54366-2 0  9998
2 52843  53.2172 333.6600 0002085 253.2629 186.7110 15.75559624  2767
STARLINK-4208           
1 52844U 22062Q   22182.91667824 -.00759378  00000+0 -53474-2 0  9998
2 52844  53.2172 333.6641 0001106  62.0020  15.8217 15.75506734  2761
STARLINK-4168           
1 52845U 22062R   22182.91667824 -.00759451  00000+0 -53350-2 0  9994
2 52845  53.2172 333.6591 0001017  80.6411 359.8764 15.75562433  1302
STARLINK-4212           
1 52846U 22062S   22182.91667824 -.00759422  00000+0 -53398-2 0  9995
2 52846  53.2172 333.6611 0001101  63.1521  16.2873 15.75540455  2764
STARLINK-4206           
1 52847U 22062T   22182.91667824 -.00759330  00000+0 -53286-2 0  9990
2 52847  53.2172 333.6570 0001150  57.5995  23.9937 15.75584640  2765
STARLINK-4202           
1 52848U 22062U   22182.91667824 -.00759380  00000+0 -53447-2 0  9995
2 52848  53.2172 333.6631 0001104  62.7327  15.6282 15.75518272  2769
STARLINK-4197           
1 52849U 22062V   22182.91667824 -.00759343  00000+0 -53237-2 0  9992
2 52849  53.2172 333.6549 0001121  61.4252  21.2464 15.75606156  2764
STARLINK-4187           
1 52850U 22062W   22182.91667824 -.00759388  00000+0 -53317-2 0  9992
2 52850  53.2172 333.6578 0001096  64.2371  16.8170 15.75573793  2766
STARLINK-3809           
1 52851U 22062X   22182.91667824 -.00759243  00000+0 -53204-2 0  9998
2 52851  53.2172 333.6540 0001117  61.4649  21.7449 15.75616972  2768
STARLINK-4184           
1 52852U 22062Y   22182.91667824 -.00759326  00000+0 -53260-2 0  9993
2 52852  53.2172 333.6557 0001118  60.9081  21.2220 15.75595844  2768
STARLINK-4189           
1 52853U 22062Z   22182.91667824 -.00759285  00000+0 -53154-2 0  9990
2 52853  53.2172 333.6517 0001085  65.7698  18.5095 15.75639889  2762
STARLINK-4204           
1 52854U 22062AA  22182.91667824 -.00759328  00000+0 -53183-2 0  9991
2 52854  53.2172 333.6525 0001098  64.7210  19.0218 15.75628835  2767
STARLINK-4209           
1 52855U 22062AB  22182.91667824 -.00759267  00000+0 -53074-2 0  9993
2 52855  53.2172 333.6485 0001083  67.5229  18.3628 15.75673411  1304
STARLINK-4201           
1 52856U 22062AC  22182.91667824 -.00759277  00000+0 -53127-2 0  9994
2 52856  53.2172 333.6503 0001094  64.7489  20.0661 15.75651064  2763
STARLINK-4199           
1 52857U 22062AD  22182.91667824 -.00759196  00000+0 -53019-2 0  9995
2 52857  53.2172 333.6464 0001120  62.0811  24.8821 15.75694282  2769
STARLINK-4198           
1 52858U 22062AE  22182.91667824 -.00759266  00000+0 -53100-2 0  9995
2 52858  53.2172 333.6493 0001043  75.4002   9.9482 15.75662618  1300
STARLINK-4196           
1 52859U 22062AF  22182.91667824 -.00759284  00000+0 -52998-2 0  9990
2 52859  53.2172 333.6453 0001131  60.6563  26.8384 15.75706034  2764
STARLINK-4191           
1 52860U 22062AG  22182.91667824 -.00759190  00000+0 -53046-2 0  9993
2 52860  53.2172 333.6471 0001114  62.4001  24.0312 15.75682603  2760
STARLINK-4112           
1 52861U 22062AH  22182.91667824 -.00759235  00000+0 -52867-2 0  9994
2 52861  53.2172 333.6400 0001041  75.5982  14.5688 15.75761136  2764
STARLINK-4010           
1 52862U 22062AJ  22182.91667824 -.00759235  00000+0 -52970-2 0  9990
2 52862  53.2172 333.6439 0001115  62.8617  25.1709 15.75716521  2763
STARLINK-4270           
1 52863U 22062AK  22182.91667824 -.00759167  00000+0 -52912-2 0  9991
2 52863  53.2172 333.6422 0001093  65.5836  23.5140 15.75739256  2765
STARLINK-4267           
1 52864U 22062AL  22182.91667824 -.00759204  00000+0 -52941-2 0  9996
2 52864  53.2172 333.6428 0001153  58.4599  30.1071 15.75727587  2767
STARLINK-4274           
1 52865U 22062AM  22182.91667824 -.00759168  00000+0 -52808-2 0  9998
2 52865  53.2172 333.6379 0001119  62.2691  28.9624 15.75783584  2769
STARLINK-4272           
1 52866U 22062AN  22182.91667824 -.00759278  00000+0 -52895-2 0  9997
2 52866  53.2172 333.6407 0001060  71.6441  17.9875 15.75750401  2762
STARLINK-4126           
1 52867U 22062AP  22182.91667824 -.00759169  00000+0 -52758-2 0  9995
2 52867  53.2172 333.6358 0001099  65.8064  26.4934 15.75805216  2762
STARLINK-4261           
1 52868U 22062AQ  22182.91667824 -.00759237  00000+0 -52840-2 0  9994
2 52868  53.2172 333.6386 0001078  69.1507  21.5482 15.75772477  2766
STARLINK-4266           
1 52869U 22062AR  22182.91667824 -.00759125  00000+0 -52729-2 0  9997
2 52869  53.2172 333.6347 0001130  61.2741  31.5596 15.75815972  2761
STARLINK-4195           
1 52870U 22062AS  22182.91667824 -.00759117  00000+0 -52780-2 0  9997
2 52870  53.2172 333.6365 0001117  63.1849  28.5832 15.75793947  2764
STARLINK-4207           
1 52871U 22062AT  22182.91667824 -.00759179  00000+0 -52656-2 0  9998
2 52871  53.2172 333.6316 0001082  68.7722  25.6556 15.75849412  2763
STARLINK-4213           
1 52872U 22062AU  22182.91667824 -.00759142  00000+0 -52706-2 0  9995
2 52872  53.2172 333.6332 0001077  69.3218  24.0454 15.75826799  2766
STARLINK-4211           
1 52873U 22062AV  22182.91667824 -.00759132  00000+0 -52604-2 0  9992
2 52873  53.2172 333.6295 0001092  67.7229  27.7753 15.75870122  2767
STARLINK-4210           
1 52874U 22062AW  22182.91667824 -.00759124  00000+0 -52677-2 0  9994
2 52874  53.2172 333.6322 0001152  59.2598  34.6380 15.75838060  2769
